IRIDIUM 106             
1 41917U 17003A   26195.72382257  .00000039  00000+0  69364-5 0  9996
2 41917  86.3941  77.0424 0002286  94.1711 265.9746 14.34217061497154
IRIDIUM 103             
1 41918U 17003B   26195.71113653  .00000099  00000+0  28115-4 0  9992
2 41918  86.3938  76.9472 0001983  83.7703 276.3718 14.34218164497172
IRIDIUM 109             
1 41919U 17003C   26195.71747929 -.00000026  00000+0 -16350-4 0  9992
2 41919  86.3941  77.0043 0002050  83.3143 276.8286 14.34216807497147
IRIDIUM 102             
1 41920U 17003D   26195.75553574  .00000147  00000+0  45556-4 0  9991
2 41920  86.3941  76.9117 0002256  85.3932 274.7521 14.34218429497236
IRIDIUM 105             
1 41921U 17003E   26195.64436202  .00000139  00000+0  42675-4 0  9998
2 41921  86.3941  45.3858 0002161  79.8007 280.3432 14.34217854499074
IRIDIUM 104             
1 41922U 17003F   26195.69845125  .00000135  00000+0  41277-4 0  9995
2 41922  86.3943  76.9784 0002012  79.2358 280.9064 14.34218134497216
IRIDIUM 114             
1 41923U 17003G   26195.70479493 -.00000020  00000+0 -14232-4 0  9995
2 41923  86.3942  76.9586 0001928  82.0530 278.0885 14.34216959497194
IRIDIUM 108             
1 41924U 17003H   26195.66331564  .00000105  00000+0  30301-4 0  9994
2 41924  86.3935  45.2661 0002231  86.1741 273.9710 14.34217835499048
IRIDIUM 112             
1 41925U 17003J   26195.76187647 -.00000066  00000+0 -30685-4 0  9990
2 41925  86.3938  76.7755 0002093  84.0917 276.0517 14.34216543497225
IRIDIUM 111             
1 41926U 17003K   26195.74919275  .00000112  00000+0  32907-4 0  9998
2 41926  86.3940  76.8523 0002151  85.8748 274.2694 14.34218051497209
IRIDIUM 113             
1 42803U 17039A   26195.86869373  .00000019  00000+0 -36881-6 0  9992
2 42803  86.3991 310.6092 0002135  91.7034 268.4406 14.34217283475158
IRIDIUM 123             
1 42804U 17039B   26195.91017177  .00000015  00000+0 -16474-5 0  9997
2 42804  86.3988 342.0482 0002025  96.9683 263.1743 14.34217303473924
IRIDIUM 120             
1 42805U 17039C   26195.86235256  .00000104  00000+0  29996-4 0  9992
2 42805  86.3979 310.3908 0002338  98.1833 261.9628 14.34218130475147
IRIDIUM 115             
1 42806U 17039D   26195.85092076  .00000171  00000+0  44958-4 0  9992
2 42806  86.4517 310.5280 0002246  99.9896 260.1559 14.43277473478252
IRIDIUM 118             
1 42807U 17039E   26195.87211790  .00000008  00000+0 -40279-5 0  9994
2 42807  86.3985 342.0619 0002055  90.5079 269.6353 14.34217295473915
IRIDIUM 117             
1 42808U 17039F   26195.89114424  .00000062  00000+0  15239-4 0  9999
2 42808  86.3991 342.0111 0002175  94.2207 265.9237 14.34217320473949
IRIDIUM 126             
1 42809U 17039G   26195.91651501  .00000067  00000+0  16839-4 0  9997
2 42809  86.3992 342.0524 0002084  90.9566 269.1869 14.34218042473926
IRIDIUM 124             
1 42810U 17039H   26195.71536420  .00000186  00000+0  49342-4 0  9996
2 42810  86.4483 278.8493 0002297  96.2869 263.8593 14.43286047479084
IRIDIUM 128             
1 42811U 17039J   26195.90725629  .00000023  00000+0  12487-5 0  9990
2 42811  86.3965  13.5571 0002285  94.2147 265.9310 14.34216640473956
IRIDIUM 121             
1 42812U 17039K   26195.86577488  .00000027  00000+0  25044-5 0  9991
2 42812  86.3991 342.1014 0002214  92.7642 267.3807 14.34217621473793
IRIDIUM 133             
1 42955U 17061A   26195.86919885  .00000039  00000+0  69215-5 0  9996
2 42955  86.3967  13.6915 0002201  91.0495 269.0953 14.34217063458747
IRIDIUM 100             
1 42956U 17061B   26195.93262628  .00000031  00000+0  40697-5 0  9996
2 42956  86.3965  13.5830 0002218  89.9681 270.1769 14.34217122458757
IRIDIUM 122             
1 42957U 17061C   26195.90090873  .00000031  00000+0  38783-5 0  9998
2 42957  86.3967  13.5967 0002130  91.1265 269.0175 14.34217054458759
IRIDIUM 129             
1 42958U 17061D   26195.92628030  .00000031  00000+0  38539-5 0  9992
2 42958  86.3966  13.6533 0002148  83.8820 276.2621 14.34216963458779
IRIDIUM 119             
1 42959U 17061E   26195.89457039  .00000031  00000+0  39525-5 0  9994
2 42959  86.3965  13.6624 0002100  89.8871 270.2565 14.34216641458785
IRIDIUM 107             
1 42960U 17061F   26195.91359585  .00000022  00000+0  95699-6 0  9991
2 42960  86.3965  13.6759 0002092  95.1520 264.9914 14.34217047458797
IRIDIUM 132             
1 42961U 17061G   26195.91993985  .00000027  00000+0  24599-5 0  9995
2 42961  86.3966  13.6526 0002179  90.3247 269.8199 14.34216524458798
IRIDIUM 136             
1 42962U 17061H   26195.88188534  .00000031  00000+0  40016-5 0  9995
2 42962  86.3967  13.6752 0002247  90.1414 270.0039 14.34217110458802
IRIDIUM 139             
1 42963U 17061J   26195.95799727  .00000033  00000+0  45524-5 0  9997
2 42963  86.3968  13.7057 0002242  91.8586 268.2866 14.34217055458823
IRIDIUM 125             
1 42964U 17061K   26195.87554297  .00000027  00000+0  27574-5 0  9998
2 42964  86.3970  13.8019 0001660  92.2782 267.8604 14.34217341458825
